EUTELSAT 7A             
1 28187U 04008A   25362.72683083  .00000121  00000+0  00000+0 0  9995
2 28187   5.3967  74.0662 0001294 224.5117 281.3082  1.00272732 79645
EUTELSAT 174A           
1 28924U 05052A   25362.57481648  .00000029  00000+0  00000+0 0  9997
2 28924   3.7856  78.6647 0006184 200.4981 199.0317  1.00270575 50627
EUTELSAT HOTBIRD 13B    
1 29270U 06032A   25362.76089105  .00000177  00000+0  00000+0 0  9998
2 29270   1.2204  84.2301 0003424 194.7604 125.4834  1.00269873 45599
EUTELSAT HOTBIRD 13C    
1 33459U 08065A   25362.74442428 -.00000262  00000+0  00000+0 0  9995
2 33459   2.5110  81.2413 0003593 195.5336  38.3819  1.00271396 45635
EUTELSAT 36B            
1 36101U 09065A   25362.76435774  .00000134  00000+0  00000+0 0  9998
2 36101   0.0658  51.2940 0005989 225.9068 145.9295  1.00272801 58993
EUTELSAT KA-SAT 9A      
1 37258U 10069A   25362.61355676  .00000084  00000+0  00000+0 0  9998
2 37258   0.0513 335.7966 0001513 203.1107 148.2709  1.00269769 42297
EUTELSAT 7 WEST A       
1 37816U 11051A   25362.68159053 -.00000038  00000+0  00000+0 0  9998
2 37816   0.0616 358.9258 0005202 235.3373 101.1930  1.00270940 52167
EUTELSAT 16A            
1 37836U 11057A   25362.75751103  .00000126  00000+0  00000+0 0  9995
2 37836   0.0550 358.5927 0005812 281.0873 106.4814  1.00272616  5614
